     2.10           N: GPS NAV DATA                         RINEX VERSION / TYPE
Convert             CompanyName         03-Jul-04 07:19     PGM / RUN BY / DATE 
    0.4657D-08  0.1490D-07 -0.5960D-07 -0.1192D-06          ION ALPHA           
    0.8192D+05  0.8192D+05 -0.6554D+05 -0.5243D+06          ION BETA            
     .000000000000D+00 -.355271367880D-14   147456     1278 DELTA-UTC: A0,A1,T,W
    13                                                      LEAP SECONDS        
                                                            END OF HEADER       
26 04 07 03 06 00 00.0  .141977332532D-03  .147792889038D-10  .000000000000D+00
     .850000000000D+02 -.107718750000D+03  .411409994020D-08  .176327593145D+01
    -.574253499508D-05  .155609385110D-01  .152923166752D-05  .515367715836D+04
     .540000000000D+06 -.223517417908D-06  .237601398583D+01  .670552253723D-07
     .982334782050D+00  .364968750000D+03  .608145659022D+00 -.820962767823D-08
    -.262510934634D-09  .100000000000D+01  .127700000000D+04  .000000000000D+00
     .000000000000D+00  .000000000000D+00 -.651925802231D-08  .850000000000D+02
     .535566000000D+06  .000000000000D+00                                      
21 04 07 03 06 00 00.0  .770520418882D-04  .341060513165D-12  .000000000000D+00
     .230000000000D+02  .100406250000D+03  .431017953628D-08  .103585886425D+00
     .496581196785D-05  .893374672160D-02  .106114894152D-04  .515369137001D+04
     .540000000000D+06  .141561031342D-06  .316548796042D+00  .931322574615D-08
     .953201962242D+00  .171031250000D+03  .302409144797D+01 -.794247369305D-08
    -.459662003910D-09  .100000000000D+01  .127700000000D+04  .000000000000D+00
     .000000000000D+00  .000000000000D+00 -.121071934700D-07  .230000000000D+02
     .535566000000D+06  .000000000000D+00                                      
 9 04 07 03 05 59 44.0 -.522467307746D-04 -.181898940355D-11  .000000000000D+00
     .960000000000D+02 -.104343750000D+03  .447982946002D-08 -.893953557668D-01
    -.552274286747D-05  .157820065506D-01  .107008963823D-04  .515370610046D+04
     .539984000000D+06 -.707805156708D-07 -.290662794468D+01  .217929482460D-06
     .952588354420D+00  .175812500000D+03  .105558388025D+01 -.811569519414D-08
     .344300055765D-09  .100000000000D+01  .127700000000D+04  .000000000000D+00
     .000000000000D+00  .000000000000D+00 -.558793544769D-08  .960000000000D+02
     .535566000000D+06  .000000000000D+00                                      
29 04 07 03 06 00 00.0  .393111258745D-03 -.557065504836D-11  .000000000000D+00
     .600000000000D+02 -.108250000000D+03  .409909931537D-08 -.234611666259D+01
    -.545382499695D-05  .817447714508D-02  .538304448128D-06  .515372671700D+04
     .540000000000D+06  .186264514923D-06  .234336727630D+01  .102445483208D-06
     .979249931085D+00  .374562500000D+03 -.134743206525D+01 -.807819363205D-08
    -.136077096729D-09  .100000000000D+01  .127700000000D+04  .000000000000D+00
     .000000000000D+00  .000000000000D+00 -.698491930962D-08  .600000000000D+02
     .535596000000D+06  .000000000000D+00                                      
15 04 07 03 06 00 00.0  .287868548185D-03  .500222085975D-11  .000000000000D+00
     .163000000000D+03  .107093750000D+03  .396195074544D-08  .108808588817D+00
     .544823706150D-05  .884685572237D-02  .109635293484D-04  .515367674446D+04
     .540000000000D+06  .447034835815D-07  .344707707397D+00 -.149011611938D-06
     .966627108790D+00  .174593750000D+03  .226762858996D+01 -.775568019807D-08
    -.402873924173D-09  .100000000000D+01  .127700000000D+04  .000000000000D+00
     .100000000000D+01  .000000000000D+00 -.279396772385D-08  .163000000000D+03
     .535596000000D+06  .000000000000D+00                                      
18 04 07 03 06 00 00.0 -.503570772707D-04 -.386535248253D-11  .000000000000D+00
     .235000000000D+03  .106593750000D+03  .431767984870D-08 -.120271570306D+01
     .556558370590D-05  .498504820280D-02  .162795186043D-05  .515367519951D+04
     .540000000000D+06  .428408384323D-07  .136199184082D+01 -.171363353729D-06
     .963519793255D+00  .352687500000D+03 -.294850404638D+01 -.822105672573D-08
     .184293390845D-09  .100000000000D+01  .127700000000D+04  .000000000000D+00
     .000000000000D+00  .000000000000D+00 -.102445483208D-07  .235000000000D+03
     .535596000000D+06  .000000000000D+00                                      
10 04 07 03 06 00 00.0  .465847551823D-04  .568434188608D-12  .000000000000D+00
     .149000000000D+03  .131750000000D+03  .405195449445D-08 -.287492137798D+01
     .678375363350D-05  .605501176324D-02  .188499689102D-05  .515374281502D+04
     .540000000000D+06 -.651925802231D-07  .132990242700D+01 -.447034835815D-07
     .979835910236D+00  .354562500000D+03  .321545830154D+00 -.809069415274D-08
     .277868717205D-09  .100000000000D+01  .127700000000D+04  .000000000000D+00
     .100000000000D+01  .000000000000D+00 -.232830643654D-08  .149000000000D+03
     .535596000000D+06  .000000000000D+00                                      
28 04 07 03 06 00 00.0  .364496372640D-04  .102318153949D-11  .000000000000D+00
     .119000000000D+03  .800000000000D+01  .495699219291D-08 -.229877703439D+01
     .296160578728D-06  .902737258002D-02  .713393092155D-05  .515368908501D+04
     .540000000000D+06  .217929482460D-06 -.181524265105D+01 -.726431608200D-07
     .958718730186D+00  .239281250000D+03 -.237223264542D+01 -.792211570220D-08
     .722530096279D-09  .100000000000D+01  .127700000000D+04  .000000000000D+00
     .100000000000D+01  .000000000000D+00 -.102445483208D-07  .375000000000D+03
     .535566000000D+06  .000000000000D+00                                      
17 04 07 03 06 00 00.0 -.730250030756D-04 -.169393388205D-10  .000000000000D+00
     .520000000000D+02  .124562500000D+03  .396337937637D-08  .905316503209D+00
     .679865479469D-05  .169907814125D-01  .110957771540D-04  .515364388847D+04
     .540000000000D+06 -.130385160446D-06  .386436496174D+00  .340864062309D-06
     .968611290914D+00  .169656250000D+03 -.277160340891D+01 -.773246494535D-08
    -.545379860117D-09  .100000000000D+01  .127700000000D+04  .000000000000D+00
     .000000000000D+00  .000000000000D+00 -.139698386192D-08  .520000000000D+02
     .535566000000D+06  .000000000000D+00                                      
22 04 07 03 06 00 00.0  .143251381814D-04  .170530256582D-11  .000000000000D+00
     .208000000000D+03  .115312500000D+03  .436839624695D-08  .306126249645D+01
     .601448118687D-05  .479529181030D-02  .116042792797D-05  .515367815781D+04
     .540000000000D+06 -.298023223877D-07  .137174935519D+01  .186264514923D-07
     .960883721670D+00  .358750000000D+03 -.145350130192D+01 -.814855370568D-08
     .174650132022D-09  .100000000000D+01  .127700000000D+04  .000000000000D+00
     .000000000000D+00  .000000000000D+00 -.181607902050D-07  .720000000000D+03
     .535596000000D+06  .000000000000D+00                                      
 5 04 07 03 06 00 00.0  .375267118216D-04  .170530256582D-11  .000000000000D+00
     .157000000000D+03  .138750000000D+02  .548987153233D-08 -.100664805043D+01
     .867992639542D-06  .532968982588D-02  .738725066185D-05  .515374133682D+04
     .540000000000D+06  .596046447754D-07 -.189883166594D+01  .447034835815D-07
     .935685535607D+00  .225906250000D+03  .840311267297D+00 -.830248868912D-08
     .681099799112D-09  .100000000000D+01  .127700000000D+04  .000000000000D+00
     .100000000000D+01  .000000000000D+00 -.419095158577D-08  .413000000000D+03
     .535656000000D+06  .000000000000D+00                                      
30 04 07 03 06 00 00.0  .553383491933D-03  .238742359215D-11  .000000000000D+00
     .143000000000D+03  .175000000000D+02  .533272212928D-08 -.200307281093D+01
     .942498445511D-06  .741502793971D-02  .722892582417D-05  .515363150215D+04
     .540000000000D+06  .912696123123D-07 -.185723069378D+01  .372529029846D-07
     .942536667704D+00  .229093750000D+03  .126491251223D+01 -.813248160764D-08
     .697529054885D-09  .100000000000D+01  .127700000000D+04  .000000000000D+00
     .000000000000D+00  .000000000000D+00 -.838190317154D-08  .143000000000D+03
     .539706000000D+06  .000000000000D+00                                      
14 04 07 03 05 59 44.0 -.225836411119D-04 -.682121026330D-12  .000000000000D+00
     .280000000000D+02 -.118031250000D+03  .403552523868D-08  .204949266450D+01
    -.598281621933D-05  .130829890259D-02  .179745256901D-05  .515362203217D+04
     .539984000000D+06  .391155481339D-07  .236398842179D+01 -.335276126862D-07
     .978414895982D+00  .354000000000D+03 -.158283671020D+01 -.809212278368D-08
    -.108933108930D-09  .100000000000D+01  .127700000000D+04  .000000000000D+00
     .000000000000D+00  .000000000000D+00 -.102445483208D-07  .540000000000D+03
     .539886000000D+06  .000000000000D+00                                      
26 04 07 03 08 00 00.0  .142083968967D-03  .147792889038D-10  .000000000000D+00
     .860000000000D+02 -.124468750000D+03  .389301930274D-08  .281326767130D+01
    -.653043389320D-05  .155590159120D-01  .519677996635D-06  .515368342400D+04
     .547200000000D+06 -.558793544769D-07  .237595531697D+01 -.109896063805D-06
     .982334079849D+00  .384343750000D+03  .608326638081D+00 -.799426156451D-08
    -.212151694112D-09  .100000000000D+01  .127700000000D+04  .000000000000D+00
     .000000000000D+00  .000000000000D+00 -.651925802231D-08  .854000000000D+03
     .540006000000D+06  .000000000000D+00                                      
